GLOBALSTAR M067 [+]     
1 32263U 07048A   24109.44341674 -.00000094  00000+0  25163-4 0  9998
2 32263  51.9719 198.7376 0001364 149.1165 292.0148 12.40641907756763
GLOBALSTAR M070 [+]     
1 32264U 07048B   24108.91961852 -.00000051  00000+0  29437-3 0  9996
2 32264  51.9768 344.0118 0000475  93.1326 279.6381 12.62290079760946
GLOBALSTAR M066 [+]     
1 32265U 07048C   24109.44865561 -.00000052  00000+0  29011-3 0  9995
2 32265  51.9666 204.3881 0000836 129.9383 310.0009 12.62260129762291
GLOBALSTAR M068 [-]     
1 32266U 07048D   24109.44059253 -.00000020  00000+0  46699-3 0  9995
2 32266  51.9864 156.9855 0000658 270.8470 192.5798 12.62785264763897
GLOBALSTAR M079 [+]     
1 37188U 10054A   24109.14001566 -.00000072  00000+0  17892-3 0  9995
2 37188  52.0062 353.6983 0000987  83.4201  81.5131 12.62268474622778
GLOBALSTAR M074 [+]     
1 37189U 10054B   24109.08355148 -.00000071  00000+0  18238-3 0  9991
2 37189  52.0037 353.2596 0000683  81.3160  66.2751 12.62267078623375
GLOBALSTAR M076 [+]     
1 37190U 10054C   24109.11343319 -.00000079  00000+0  13687-3 0  9995
2 37190  52.0051 353.2996 0001008 111.6684  52.5894 12.62276613623097
